     2.100          NAVIGATION                              RINEX VERSION / TYPE
fic2rin                                 05/20/2012 00:24:04 PGM / RUN BY / DATE
                                                            END OF HEADER
 5 12  5 19 14  0  0.0 -.316830817610D-03 -.386535248253D-11  .000000000000D+00
     .130000000000D+02  .947500000000D+02  .453840332843D-08 -.236335235964D+01
     .473111867905D-05  .266001862474D-02  .105500221252D-04  .515366992760D+04
     .568800000000D+06 -.186264514923D-07  .635226957124D-01 -.670552253723D-07
     .951546919131D+00  .173562500000D+03  .244993966171D+00 -.790782939284D-08
    -.964325882329D-11  .100000000000D+01  .168800000000D+04  .000000000000D+00
     .240000000000D+01  .000000000000D+00 -.102445483208D-07  .130000000000D+02
     .561606000000D+06  .400000000000D+01
 7 12  5 19 14  0  0.0  .826329924166D-04  .341060513165D-11  .000000000000D+00
     .470000000000D+02 -.101406250000D+03  .421910431406D-08  .475502946995D+00
    -.542216002941D-05  .536033546086D-02  .431574881077D-05  .515361255264D+04
     .568800000000D+06  .223517417908D-07  .217491299824D+01  .149011611938D-07
     .975677483672D+00  .300062500000D+03 -.302834656610D+01 -.813248160764D-08
    -.437875382124D-09  .100000000000D+01  .168800000000D+04  .000000000000D+00
     .240000000000D+01  .000000000000D+00 -.107102096081D-07  .470000000000D+02
     .561606000000D+06  .400000000000D+01
 8 12  5 19 14  0  0.0  .125449150801D-05  .113686837722D-12  .000000000000D+00
     .330000000000D+02 -.105968750000D+03  .372551232540D-08 -.207097566331D+00
    -.574253499508D-05  .122388475575D-01  .588223338127D-05  .515368181419D+04
     .568800000000D+06  .132247805595D-06  .225808954338D+01  .763684511185D-07
     .997900659048D+00  .283156250000D+03 -.296940489595D+01 -.790747223510D-08
    -.430017911972D-09  .100000000000D+01  .168800000000D+04  .000000000000D+00
     .485000000000D+01  .000000000000D+00 -.372529029846D-08  .330000000000D+02
     .561606000000D+06  .400000000000D+01
 9 12  5 19 14  0  0.0  .159237068146D-03  .261479726760D-11  .000000000000D+00
     .320000000000D+02 -.102093750000D+03  .414660129402D-08 -.224584550277D+00
    -.523217022419D-05  .174991304521D-01  .516325235367D-05  .515362330246D+04
     .568800000000D+06 -.229105353355D-06  .214910803472D+01  .633299350739D-07
     .984402656253D+00  .292281250000D+03  .161536359358D+01 -.832998983466D-08
    -.352871841386D-09  .100000000000D+01  .168800000000D+04  .000000000000D+00
     .240000000000D+01  .000000000000D+00 -.558793544769D-08  .320000000000D+02
     .561606000000D+06  .400000000000D+01
10 12  5 19 14  0  0.0 -.386782921851D-04 -.113686837722D-11  .000000000000D+00
     .390000000000D+02  .946562500000D+02  .464912222603D-08 -.207136024545D+01
     .465475022793D-05  .112694376148D-01  .970810651779D-05  .515370377350D+04
     .568800000000D+06  .132247805595D-06  .851236115687D-01 -.931322574615D-07
     .946432074763D+00  .183468750000D+03  .751489751387D+00 -.785997025645D-08
     .116790579082D-09  .100000000000D+01  .168800000000D+04  .000000000000D+00
     .240000000000D+01  .000000000000D+00 -.232830643654D-08  .390000000000D+02
     .561606000000D+06  .400000000000D+01
11 12  5 19 14  0  0.0 -.262865796685D-03 -.386535248253D-11  .000000000000D+00
     .200000000000D+02 -.285625000000D+02  .663527638589D-08  .581177116794D+00
    -.154040753841D-05  .128923727898D-01  .509619712830D-05  .515367007828D+04
     .568800000000D+06 -.169500708580D-06 -.125543872058D+01  .577419996262D-07
     .887666651130D+00  .243625000000D+03  .104570584923D+01 -.926110004770D-08
    -.367158150754D-09  .100000000000D+01  .168800000000D+04  .000000000000D+00
     .240000000000D+01  .000000000000D+00 -.116415321827D-07  .200000000000D+02
     .561606000000D+06  .400000000000D+01
13 12  5 19 14  0  0.0  .206441152841D-03 -.238742359215D-11  .000000000000D+00
     .110000000000D+02  .560000000000D+02  .427696386700D-08  .274639148458D+01
     .307708978653D-05  .499767332803D-02  .181235373020D-05  .515367265892D+04
     .568800000000D+06  .184401869774D-06  .120391379785D+01  .353902578354D-07
     .985713324059D+00  .356781250000D+03  .199427295784D+01 -.814141055100D-08
     .111076055335D-09  .100000000000D+01  .168800000000D+04  .000000000000D+00
     .240000000000D+01  .000000000000D+00 -.111758708954D-07  .110000000000D+02
     .561606000000D+06  .400000000000D+01
14 12  5 19 14  0  0.0  .203136354685D-03  .909494701773D-12  .000000000000D+00
     .240000000000D+02  .665937500000D+02  .438589697593D-08  .291221869824D+01
     .341422855854D-05  .630337826442D-02  .183656811714D-05  .515359024048D+04
     .568800000000D+06 -.186264514923D-07  .117725681768D+01 -.135973095894D-06
     .978576271938D+00  .350750000000D+03 -.206906254243D+01 -.815248244076D-08
     .120362156424D-09  .100000000000D+01  .168800000000D+04  .000000000000D+00
     .240000000000D+01  .000000000000D+00 -.884756445885D-08  .240000000000D+02
     .561606000000D+06  .400000000000D+01
15 12  5 19 14  0  0.0 -.913846306503D-04 -.113686837722D-12  .000000000000D+00
     .670000000000D+02  .767500000000D+02  .523914680292D-08  .242497468527D+01
     .402517616749D-05  .437320407946D-02  .189989805222D-05  .515356018066D+04
     .568800000000D+06 -.121071934700D-06  .108966846856D+01  .502914190292D-07
     .945483035918D+00  .336687500000D+03  .548244349721D-01 -.859000066515D-08
     .198936857947D-09  .100000000000D+01  .168800000000D+04  .000000000000D+00
     .240000000000D+01  .000000000000D+00 -.102445483208D-07  .670000000000D+02
     .561606000000D+06  .400000000000D+01
16 12  5 19 14  0  0.0 -.235390849411D-03 -.125055521494D-11  .000000000000D+00
     .150000000000D+02 -.494687500000D+02  .369836833760D-08 -.208561269704D+01
    -.257417559624D-05  .665452226531D-02  .113006681204D-04  .515367604256D+04
     .568800000000D+06 -.335276126862D-07 -.303408738727D+01 -.428408384323D-07
     .980931537862D+00  .174843750000D+03 -.198088616900D-01 -.747352558805D-08
     .353228999120D-09  .100000000000D+01  .168800000000D+04  .000000000000D+00
     .240000000000D+01  .000000000000D+00 -.977888703346D-08  .150000000000D+02
     .561606000000D+06  .400000000000D+01
17 12  5 19 14  0  0.0  .127645675093D-03 -.284217094304D-11  .000000000000D+00
     .800000000000D+02  .204062500000D+02  .462876423518D-08 -.305190448892D+01
     .107474625111D-05  .735746999271D-02  .545941293240D-05  .515367479515D+04
     .568800000000D+06  .111758708954D-07 -.199398800627D+01 -.894069671631D-07
     .962596810444D+00  .274531250000D+03 -.229559563961D+01 -.793961643118D-08
     .388230457071D-09  .100000000000D+01  .168800000000D+04  .000000000000D+00
     .240000000000D+01  .000000000000D+00 -.107102096081D-07  .800000000000D+02
     .561606000000D+06  .400000000000D+01
19 12  5 19 14  0  0.0 -.266801565886D-03 -.375166564481D-11  .000000000000D+00
     .170000000000D+02  .220000000000D+02  .481698636110D-08  .239613092052D+01
     .114925205708D-05  .833341770340D-02  .532716512680D-05  .515356846428D+04
     .568800000000D+06 -.178813934326D-06 -.194091889305D+01  .651925802231D-07
     .959932982913D+00  .276187500000D+03  .161656732646D+00 -.812819571483D-08
     .348585948575D-09  .100000000000D+01  .168800000000D+04  .000000000000D+00
     .240000000000D+01  .000000000000D+00 -.144354999065D-07  .170000000000D+02
     .561606000000D+06  .400000000000D+01
20 12  5 19 14  0  0.0  .634426251054D-04  .113686837722D-12  .000000000000D+00
     .240000000000D+02  .770000000000D+02  .502163774280D-08 -.121343853124D+01
     .413693487644D-05  .498388556298D-02  .103712081909D-04  .515370960426D+04
     .568800000000D+06  .186264514923D-07  .203646666930D-01  .117346644402D-06
     .930696001876D+00  .167468750000D+03  .129488894569D+01 -.818248369043D-08
    -.614311302817D-10  .100000000000D+01  .168800000000D+04  .000000000000D+00
     .240000000000D+01  .000000000000D+00 -.791624188423D-08  .240000000000D+02
     .561606000000D+06  .400000000000D+01
21 12  5 19 14  0  0.0 -.224687624723D-03 -.250111042988D-11  .000000000000D+00
     .600000000000D+01 -.214687500000D+02  .548237121991D-08 -.500942535022D+00
    -.838190317154D-06  .191511912271D-01  .735372304916D-05  .515360629272D+04
     .568800000000D+06  .353902578354D-07 -.976580275288D+00  .290572643280D-06
     .931131531606D+00  .224593750000D+03 -.225230300896D+01 -.869071914619D-08
    -.392159192147D-09  .100000000000D+01  .168800000000D+04  .000000000000D+00
     .240000000000D+01  .000000000000D+00 -.111758708954D-07  .600000000000D+01
     .561606000000D+06  .400000000000D+01
22 12  5 19 14  0  0.0  .143892597407D-03  .113686837722D-12  .000000000000D+00
     .220000000000D+02  .876562500000D+02  .498699344258D-08 -.238626991639D+01
     .441446900368D-05  .607268814929D-02  .106617808342D-04  .515368728447D+04
     .568800000000D+06  .104308128357D-06  .774556650136D-01  .186264514923D-07
     .927967756210D+00  .153406250000D+03 -.201747510190D+01 -.809462288782D-08
     .382158775590D-10  .100000000000D+01  .168800000000D+04  .000000000000D+00
     .240000000000D+01  .000000000000D+00 -.167638063431D-07  .220000000000D+02
     .561606000000D+06  .400000000000D+01
23 12  5 19 14  0  0.0  .203812960535D-03 -.375166564481D-11  .000000000000D+00
     .190000000000D+02  .720937500000D+02  .487413159857D-08  .200268368496D+01
     .384263694286D-05  .787257298362D-02  .219233334064D-05  .515363572121D+04
     .568800000000D+06 -.670552253723D-07  .112528196280D+01  .227242708206D-06
     .960191942820D+00  .340125000000D+03 -.301254166146D+01 -.845999524990D-08
     .146434671020D-09  .100000000000D+01  .168800000000D+04  .000000000000D+00
     .240000000000D+01  .000000000000D+00 -.200234353542D-07  .190000000000D+02
     .561606000000D+06  .400000000000D+01
